GPS BIIA-10 (PRN 32)    
1 20959U 90103A   15288.98858335  .00000018  00000-0  00000+0 0  9999
2 20959  54.2500 189.3522 0113196   7.2982 352.9372  2.00563516182260
GPS BIIA-23 (PRN 04)    
1 22877U 93068A   15289.41197355  .00000043  00000-0  00000+0 0  9998
2 22877  53.9030 123.6472 0117581  63.0843 299.3228  2.00566535160992
GPS BIIA-24 (PRN 10)    
1 23027U 94016A   15289.23364375 -.00000022  00000-0  00000+0 0  9996
2 23027  54.4613  60.1416 0101184   7.5342 325.9422  2.00566820158283
GPS BIIR-2  (PRN 13)    
1 24876U 97035A   15289.10829374  .00000004  00000-0  00000+0 0  9993
2 24876  55.7540 251.1619 0044517 119.3110 102.0891  2.00562295133590
GPS BIIR-3  (PRN 11)    
1 25933U 99055A   15288.91334215  .00000025  00000-0  00000+0 0  9998
2 25933  51.2485 104.4517 0160712  84.0543 277.8126  2.00567765117406
GPS BIIR-4  (PRN 20)    
1 26360U 00025A   15289.45234763  .00000020  00000-0  00000+0 0  9994
2 26360  53.0675 180.3196 0047475  70.4933  65.9708  2.00565242113114
GPS BIIR-5  (PRN 28)    
1 26407U 00040A   15289.55772362 -.00000063  00000-0  00000+0 0  9994
2 26407  56.6859   8.9049 0200648 265.2702 225.5050  2.00561183111787
GPS BIIR-6  (PRN 14)    
1 26605U 00071A   15289.20479005  .00000005  00000-0  00000+0 0  9993
2 26605  55.3235 249.1207 0086576 248.7254 282.1150  2.00564103109373
GPS BIIR-7  (PRN 18)    
1 26690U 01004A   15289.49337059  .00000018  00000-0  00000+0 0  9991
2 26690  52.9977 183.3048 0165681 249.5300 221.6789  2.00567133107786
GPS BIIR-8  (PRN 16)    
1 27663U 03005A   15288.70020773 -.00000065  00000-0  00000-0 0  9994
2 27663  56.7631   8.6399 0080357  16.7103 338.4722  2.00568296 93133
GPS BIIR-9  (PRN 21)    
1 27704U 03010A   15289.25432269  .00000042  00000-0  00000+0 0  9997
2 27704  53.5606 123.5677 0227987 252.9378 103.5607  2.00555280 91941
GPS BIIR-10 (PRN 22)    
1 28129U 03058A   15289.13781042  .00000019  00000-0  00000+0 0  9998
2 28129  52.8733 183.3715 0081865 243.6405 296.6807  2.00562443 86640
GPS BIIR-11 (PRN 19)    
1 28190U 04009A   15289.39939299 -.00000003  00000-0  00000+0 0  9994
2 28190  55.6401  70.1323 0112148  36.6680 333.1496  2.00391271 84821
GPS BIIR-12 (PRN 23)    
1 28361U 04023A   15289.33633885  .00000004  00000-0  00000+0 0  9996
2 28361  54.2865 244.8513 0105181 210.7209 310.6714  2.00550068 82903
GPS BIIR-13 (PRN 02)    
1 28474U 04045A   15289.11773355  .00000043  00000-0  00000+0 0  9991
2 28474  53.9551 122.7945 0150285 233.0022 130.1336  2.00566454 80263
GPS BIIRM-1 (PRN 17)    
1 28874U 05038A   15288.53233124 -.00000013  00000-0  00000-0 0  9997
2 28874  55.8078  67.3470 0107173 245.6287 159.0747  2.00574587 73667
GPS BIIRM-2 (PRN 31)    
1 29486U 06042A   15289.26737985 -.00000023  00000-0  00000+0 0  9998
2 29486  55.7915 306.6333 0083094 329.1234 169.9753  2.00571013 66387
GPS BIIRM-3 (PRN 12)    
1 29601U 06052A   15288.58705407 -.00000065  00000-0  00000-0 0  9993
2 29601  56.7327   7.5716 0053608  35.0083  12.8292  2.00573690 65239
GPS BIIRM-4 (PRN 15)    
1 32260U 07047A   15288.60740775 -.00000003  00000-0  00000-0 0  9995
2 32260  53.4172 241.7668 0074949  22.2142 172.9143  2.00556348 58673
GPS BIIRM-5 (PRN 29)    
1 32384U 07062A   15289.09625949 -.00000008  00000-0  00000+0 0  9992
2 32384  55.8591  67.8686 0009832 319.4698   0.9723  2.00563150 57407
GPS BIIRM-6 (PRN 07)    
1 32711U 08012A   15288.74841707 -.00000026  00000-0  00000+0 0  9995
2 32711  55.5125 306.1746 0090756 206.9928 152.5679  2.00561126 55603
GPS BIIRM-8 (PRN 05)    
1 35752U 09043A   15289.02133473  .00000021  00000-0  00000+0 0  9998
2 35752  54.2239 184.2536 0043673  22.6323 203.8222  2.00564708 45177
GPS BIIF-1  (PRN 25)    
1 36585U 10022A   15288.96360013 -.00000065  00000-0  00000+0 0  9995
2 36585  56.0681   4.7914 0044893  39.8237 248.1761  2.00570979 39426
GPS BIIF-2  (PRN 01)    
1 37753U 11036A   15289.46429620  .00000047  00000-0  00000+0 0  9994
2 37753  55.1765 125.1100 0046623  25.4910 350.1956  2.00565231 31117
GPS BIIF-3  (PRN 24)    
1 38833U 12053A   15288.93354654 -.00000026  00000-0  00000+0 0  9997
2 38833  54.5477 303.6865 0034830  13.2480 346.8752  2.00565985 22184
GPS BIIF-4  (PRN 27)    
1 39166U 13023A   15288.78965246 -.00000016  00000-0  10000-3 0  9997
2 39166  55.5168  64.5512 0026052  13.8852 346.1792  2.00560354 17704
GPS BIIF-5  (PRN 30)    
1 39533U 14008A   15289.28873282 -.00000028  00000-0  00000+0 0  9991
2 39533  54.6977 308.8650 0017245 188.0691 171.9414  2.00562287 12085
GPS BIIF-6  (PRN 06)    
1 39741U 14026A   15289.07103346  .00000046  00000-0  00000+0 0  9995
2 39741  55.1683 124.6407 0002538 217.7663 142.2842  2.00577725 10366
GPS BIIF-7  (PRN 09)    
1 40105U 14045A   15288.66119667 -.00000000  00000-0  00000+0 0  9990
2 40105  54.8019 244.4570 0003093 186.8001 173.1774  2.00557385  8805
GPS BIIF-8  (PRN 03)    
1 40294U 14068A   15288.52949810  .00000022  00000-0  00000+0 0  9993
2 40294  54.9608 184.7805 0006772 223.3902 136.6379  2.00572668  7029
GPS BIIF-9  (PRN 26)    
1 40534U 15013A   15289.16702839 -.00000067  00000-0  00000+0 0  9990
2 40534  55.0407   4.4951 0002751 314.2054  45.8186  2.00567371  4092
GPS BIIF-10  (PRN 08)   
1 40730U 15033A   15288.83144820 -.00000017  00000-0  00000+0 0  9998
2 40730  55.0538  64.4988 0016101 259.4636 100.3458  2.00574509  1841
